STARLINK-35910          
1 67184U 25303X   26068.06052621  .00039330  00000+0  14301-2 0  9991
2 67184  42.9961 313.8596 0000184  24.3355 335.7505 15.27604781 12641
2025-313BE              
1 67482U 25313BE  26068.69721505  .00077178  00000+0  26504-2 0  9996
2 67482  97.3989 145.3568 0007208 335.3714  24.7181 15.29801687  7972
